{"type":"FeatureCollection","features":[{"type":"Feature","properties":{"name":"Bengaluru Outer Ring Road","osm_relation":3303114,"note":"BDA Planning Zone A boundary \u2014 inside ORR = zone_A, outside = zone_B"},"geometry":{"type":"Polygon","coordinates":[[[77.5128496,12.972487],[77.5129758,12.9724641],[77.5127999,12.9721522],[77.5127785,12.9720045],[77.5129056,12.9719859],[77.5127416,12.9717855],[77.5127197,12.9715366],[77.5126714,12.9708477],[77.5127967,12.9708412],[77.5126439,12.9703787],[77.5127653,12.970363],[77.5125671,12.9690692],[77.5126752,12.9689542],[77.5125393,12.968738],[77.5126613,12.9687324],[77.51265,12.9685297],[77.5126335,12.9682352],[77.5124913,12.9657191],[77.5123552,12.9652836],[77.5124757,12.9652758],[77.5123479,12.9646716],[77.5124664,12.9646739],[77.5123731,12.9636576],[77.5124959,12.9636699],[77.5123756,12.9635558],[77.5124991,12.9635604],[77.5125465,12.9619414],[77.5124164,12.9619111],[77.5124272,12.9617258],[77.5125672,12.9617013],[77.5124407,12.9615952],[77.5125825,12.9615695],[77.512467,12.9614552],[77.5126116,12.9614285],[77.5125043,12.9613244],[77.5126504,12.961308],[77.5125524,12.9611937],[77.5127001,12.9611896],[77.5126217,12.9610613],[77.5127713,12.9610704],[77.5126634,12.9610056],[77.512705,12.9609499],[77.5128798,12.9609476],[77.5127926,12.9608495],[77.5129864,12.9608502],[77.5128846,12.9607655],[77.5131403,12.9607495],[77.5130034,12.9606834],[77.5132902,12.960676],[77.5131142,12.9606207],[77.513214,12.9605757],[77.513977,12.9604154],[77.5139507,12.9602991],[77.5152185,12.9599442],[77.5153191,12.959902],[77.515226,12.9598203],[77.5154238,12.9597399],[77.5156631,12.9597509],[77.5156156,12.9596543],[77.5157769,12.9595707],[77.5160607,12.9595402],[77.5160029,12.9594413],[77.5163632,12.9593566],[77.5165908,12.9592185],[77.5166568,12.9591785],[77.5167228,12.9591384],[77.5169526,12.958999],[77.5168265,12.9589291],[77.5171542,12.9588924],[77.5170267,12.9588158],[77.517344,12.9587982],[77.5172626,12.9586998],[77.5175013,12.9587305],[77.5176667,12.9586715],[77.5174254,12.9586287],[77.5178446,12.9586195],[77.5175965,12.9585668],[77.51777,12.9585126],[77.5182424,12.9585118],[77.5181558,12.9584095],[77.5184444,12.9584457],[77.5182931,12.9583682],[77.5185841,12.9583887],[77.5184342,12.9583225],[77.5187315,12.9583142],[77.5185551,12.9582684],[77.5188168,12.9582638],[77.5186667,12.9582098],[77.5189008,12.9582041],[77.518743,12.9581642],[77.5188444,12.9580904],[77.5190135,12.9581031],[77.5189352,12.958016],[77.5191236,12.9579955],[77.5190402,12.9579146],[77.5192139,12.9578759],[77.5191373,12.957787],[77.5193236,12.9577159],[77.5192145,12.9576709],[77.5193986,12.9575647],[77.5192839,12.9575273],[77.5193419,12.9573833],[77.5194626,12.9573931],[77.519374,12.9572494],[77.5194894,12.957233],[77.5194028,12.9571146],[77.5195151,12.9570661],[77.5194209,12.9569832],[77.5194435,12.956559],[77.51956,12.956517],[77.5195993,12.9558664],[77.5195166,12.9551782],[77.5196496,12.9551051],[77.5195393,12.9549679],[77.519564,12.9547804],[77.5197017,12.9547247],[77.5195948,12.9545866],[77.5197551,12.9544338],[77.5196532,12.954289],[77.5198354,12.9540962],[77.5197298,12.9539951],[77.5199158,12.9538216],[77.5198289,12.9536783],[77.5200048,12.953564],[77.5199259,12.9534104],[77.520096,12.9533318],[77.5200409,12.953133],[77.5201483,12.952917],[77.5203614,12.9527822],[77.5205439,12.9524754],[77.5204634,12.9523739],[77.5206529,12.9522994],[77.5206943,12.9522325],[77.5206235,12.9521267],[77.5208285,12.9520609],[77.520986,12.9518594],[77.5208663,12.9518103],[77.5210093,12.9518295],[77.5211212,12.9516864],[77.5209914,12.9516472],[77.5211658,12.9516284],[77.5215436,12.9509312],[77.5221371,12.9501514],[77.5226539,12.9494824],[77.5231208,12.9490821],[77.5230307,12.9489988],[77.5232489,12.9489152],[77.523138,12.948861],[77.5233556,12.9487763],[77.523389,12.9485388],[77.5241014,12.9477843],[77.5241496,12.9477256],[77.5240484,12.9476326],[77.5242265,12.947632],[77.5242709,12.9475749],[77.5241474,12.9475093],[77.5242204,12.9474103],[77.52433,12.947283],[77.5245912,12.9471624],[77.5246328,12.9471247],[77.5245155,12.9470789],[77.5247589,12.9470102],[77.5247062,12.9469051],[77.5249911,12.9468459],[77.5249444,12.9467251],[77.5263417,12.9462411],[77.5267179,12.9460326],[77.5266869,12.945933],[77.5270956,12.9458764],[77.527067,12.9458007],[77.5283714,12.9454397],[77.5284366,12.945321],[77.5285959,12.9453386],[77.5288251,12.9452353],[77.5287778,12.9451744],[77.5290287,12.9451341],[77.5289881,12.9450644],[77.5291618,12.9450403],[77.529114,12.9449729],[77.5293559,12.9449151],[77.5293199,12.9448408],[77.5295816,12.9447147],[77.5295322,12.944664],[77.5298198,12.9444797],[77.5297752,12.9444162],[77.5299796,12.944279],[77.5299838,12.9441504],[77.5301447,12.944033],[77.530118,12.9439085],[77.5301988,12.9439355],[77.5303216,12.9435404],[77.5303583,12.9434621],[77.5304855,12.9432391],[77.5306234,12.9432275],[77.5307882,12.9429389],[77.5306731,12.9428826],[77.5310537,12.9424272],[77.5309643,12.9423809],[77.5311575,12.9422398],[77.5313295,12.9419277],[77.5315166,12.9415881],[77.531509,12.9413936],[77.5317921,12.9411402],[77.5319053,12.9409649],[77.5322334,12.9404569],[77.5323836,12.9399373],[77.532531,12.939976],[77.5324219,12.9398745],[77.5327685,12.9395886],[77.5327131,12.9394046],[77.5328494,12.9394538],[77.5329255,12.9392503],[77.5328482,12.9392084],[77.5330379,12.9390764],[77.5329674,12.9390306],[77.5331854,12.9388534],[77.5331066,12.9388068],[77.5332399,12.9387659],[77.5331615,12.9387186],[77.5334679,12.9384139],[77.5333894,12.9383668],[77.5337938,12.9378659],[77.5337142,12.9378206],[77.5337929,12.937692],[77.533875,12.9377331],[77.5338411,12.9375831],[77.5339274,12.9376152],[77.5340357,12.936983],[77.5341239,12.9370089],[77.5341367,12.936671],[77.5342192,12.9367128],[77.5343905,12.9365194],[77.5343225,12.9364583],[77.5345006,12.9364197],[77.5344398,12.9363521],[77.5346405,12.9363034],[77.5345782,12.9362408],[77.534851,12.9361969],[77.534803,12.9361104],[77.5349737,12.9361323],[77.5349359,12.9360409],[77.5350508,12.9360917],[77.5350303,12.9359916],[77.5351112,12.9359493],[77.5354039,12.9357964],[77.5355378,12.9358363],[77.5360364,12.9355794],[77.536212,12.935485],[77.5364343,12.9353655],[77.5363937,12.9352791],[77.5364976,12.935225],[77.5368584,12.9350199],[77.5370272,12.9350315],[77.537061,12.9349047],[77.5374003,12.9347118],[77.5376313,12.9348003],[77.5375731,12.9347176],[77.5379116,12.9346052],[77.5382298,12.9341968],[77.5383472,12.9341208],[77.5390381,12.9339369],[77.5391011,12.9339017],[77.5391271,12.9338872],[77.538948,12.9337586],[77.5392573,12.9338094],[77.5392648,12.9338049],[77.5391858,12.9336192],[77.5394016,12.9337212],[77.5393562,12.9335289],[77.5396373,12.9335701],[77.5395766,12.9334255],[77.5396926,12.9333556],[77.5401651,12.9331815],[77.5403085,12.9330229],[77.5403815,12.9328697],[77.5410086,12.9324059],[77.5414244,12.9322243],[77.5414111,12.9321216],[77.5415919,12.932102],[77.5416421,12.932061],[77.5415818,12.9319953],[77.5423712,12.9314049],[77.5424528,12.9314505],[77.5427212,12.9312315],[77.5426746,12.9311635],[77.5430314,12.93097],[77.5429764,12.9309099],[77.5433305,12.9306978],[77.5432724,12.9306399],[77.5436522,12.9303922],[77.5435945,12.9303347],[77.5446086,12.9295048],[77.5445504,12.9294443],[77.5447994,12.9293365],[77.5447417,12.9292613],[77.5455939,12.9286536],[77.5455347,12.9285918],[77.545899,12.9283039],[77.545976,12.9283537],[77.5462074,12.928172],[77.5461546,12.9281019],[77.5463053,12.9280951],[77.5462494,12.928027],[77.5463831,12.928034],[77.5463249,12.9279676],[77.5467664,12.927733],[77.5467157,12.9276602],[77.5469517,12.9274746],[77.546964,12.9274649],[77.5469736,12.9274573],[77.5478614,12.9268731],[77.5479628,12.9266882],[77.5484014,12.926449],[77.5483569,12.9263692],[77.5484319,12.9263102],[77.5487628,12.9261885],[77.5486931,12.926109],[77.5487093,12.9260983],[77.5489595,12.9260467],[77.5489342,12.9259506],[77.5490966,12.925844],[77.5493248,12.9257112],[77.5493707,12.9256844],[77.5496287,12.9255334],[77.5496701,12.9255092],[77.5498093,12.9255285],[77.5498815,12.9254845],[77.5499038,12.9254717],[77.5498681,12.9254014],[77.5499312,12.9254568],[77.5499503,12.925447],[77.5499125,12.9253743],[77.5500127,12.925416],[77.5499704,12.9253441],[77.550106,12.9253588],[77.5500573,12.9252906],[77.550087,12.9252707],[77.5505315,12.9251154],[77.550497,12.9250502],[77.5508423,12.9249466],[77.5510818,12.9248259],[77.5511088,12.9247261],[77.5515543,12.9245817],[77.5516085,12.9245522],[77.5515544,12.9244977],[77.5517049,12.9245175],[77.5516645,12.9244456],[77.5520946,12.924377],[77.5520719,12.9242928],[77.5527186,12.9240873],[77.5531814,12.9240234],[77.5531394,12.92395],[77.5532717,12.923994],[77.5532445,12.9239157],[77.553506,12.9239269],[77.5534936,12.9238476],[77.5536551,12.9238035],[77.5537613,12.9238533],[77.5538742,12.923816],[77.5538503,12.9237425],[77.5540292,12.923765],[77.5540915,12.9236672],[77.5543506,12.9236617],[77.5543184,12.9235975],[77.5544894,12.9236149],[77.5544547,12.9235541],[77.5544812,12.9235455],[77.5545575,12.9235927],[77.5548578,12.9234845],[77.5551736,12.9233808],[77.5552768,12.9232862],[77.5554637,12.923282],[77.5557386,12.9231995],[77.5560459,12.9230958],[77.5563019,12.9230167],[77.5562813,12.9229595],[77.5565137,12.92296],[77.5570609,12.9227783],[77.5573654,12.9226772],[77.5574388,12.92265],[77.5576526,12.9225785],[77.5579456,12.9223931],[77.5585556,12.9223026],[77.5585688,12.9222109],[77.5586389,12.9222747],[77.5587232,12.9222442],[77.5587028,12.9221736],[77.5593571,12.922044],[77.5593342,12.9219724],[77.5594587,12.9220176],[77.5594396,12.9219501],[77.5596488,12.921975],[77.5596318,12.9219035],[77.5600653,12.9219074],[77.5600553,12.9218353],[77.5603935,12.92186],[77.5603779,12.9217911],[77.5605943,12.9218337],[77.5605768,12.9217624],[77.5607998,12.9217926],[77.5607808,12.9217203],[77.5612103,12.9217003],[77.5611846,12.9216312],[77.561381,12.921642],[77.5613583,12.9215685],[77.5614884,12.9214887],[77.5615419,12.9215434],[77.5616324,12.9213588],[77.5617001,12.9214067],[77.5617772,12.9211405],[77.5618533,12.9211871],[77.5618326,12.9210361],[77.5620557,12.9207545],[77.5620392,12.9206178],[77.5621028,12.9206438],[77.5620828,12.9205004],[77.562127,12.9203925],[77.5621907,12.9204154],[77.5622073,12.9202596],[77.5622505,12.9203105],[77.5622889,12.9201797],[77.5624205,12.92017],[77.5624139,12.9200876],[77.5627484,12.9199926],[77.5627253,12.9199016],[77.5629995,12.9197378],[77.5631276,12.9196613],[77.5634027,12.9195783],[77.5633607,12.9195161],[77.563454,12.9194234],[77.5635324,12.9194556],[77.563584,12.9192711],[77.5637823,12.9189909],[77.5638699,12.9190186],[77.5639854,12.9186863],[77.5640499,12.9185742],[77.5640844,12.9185056],[77.5641977,12.9184896],[77.564228,12.9182346],[77.5643441,12.9181917],[77.5644108,12.9178079],[77.5644935,12.9178408],[77.5646218,12.9172781],[77.5647123,12.9173029],[77.5646891,12.917109],[77.5648927,12.9168596],[77.5649708,12.9164018],[77.5651834,12.9158681],[77.5652531,12.9158772],[77.5652155,12.9157933],[77.5652779,12.9156479],[77.5653124,12.9155446],[77.5653611,12.9155973],[77.5653526,12.9154427],[77.565407,12.9154562],[77.5654575,12.9153174],[77.5656908,12.9145144],[77.5657716,12.9145407],[77.565818,12.9142434],[77.5658999,12.9140689],[77.5659906,12.9140674],[77.565989,12.9138947],[77.5661297,12.9136908],[77.566197,12.9137335],[77.5662974,12.913487],[77.5671365,12.9126294],[77.5671362,12.9124554],[77.567224,12.9125266],[77.567209,12.9123826],[77.5672868,12.9124498],[77.5672793,12.9122899],[77.5673692,12.9121758],[77.5676184,12.9118595],[77.567694,12.9119139],[77.5682986,12.9109962],[77.5684499,12.9108096],[77.5685121,12.910863],[77.5692894,12.9099757],[77.5696652,12.9095344],[77.5696713,12.9093646],[77.569723,12.9093031],[77.5698384,12.9093221],[77.569955,12.909017],[77.5701491,12.9087777],[77.5702219,12.9088152],[77.5701939,12.9087158],[77.5702648,12.9087649],[77.5703059,12.9085501],[77.5703642,12.908633],[77.5703867,12.9086032],[77.5705351,12.9082269],[77.5707703,12.9079026],[77.5708419,12.907981],[77.5709463,12.9077141],[77.5712011,12.9074487],[77.5714931,12.9072594],[77.5715731,12.9070615],[77.5715978,12.9070357],[77.5716364,12.9070888],[77.5717368,12.9068936],[77.5717814,12.906951],[77.5718602,12.9067828],[77.5719421,12.9067253],[77.5719958,12.9066875],[77.5720337,12.9067486],[77.5721899,12.906693],[77.5721746,12.9066061],[77.5722293,12.9065969],[77.572445,12.9066584],[77.5724314,12.9065726],[77.5729983,12.9065855],[77.5730084,12.9065845],[77.5730753,12.9065768],[77.5731281,12.9065682],[77.573184,12.9065633],[77.5731406,12.9064508],[77.5731965,12.9064465],[77.5733344,12.9065281],[77.5733416,12.9064214],[77.5733935,12.9065279],[77.5733981,12.9064249],[77.5734294,12.9064247],[77.5734546,12.9064246],[77.5735241,12.9065276],[77.5744148,12.9065253],[77.5744021,12.9064445],[77.5749445,12.9064402],[77.5750412,12.9064394],[77.5750788,12.9065236],[77.5750827,12.9064391],[77.5751387,12.9065234],[77.5751427,12.9064386],[77.5755193,12.9064356],[77.5757551,12.9064312],[77.5759408,12.9065213],[77.5759447,12.9064277],[77.5782584,12.9065044],[77.5782739,12.9065043],[77.5782753,12.9064151],[77.5783639,12.9065036],[77.5783628,12.9064146],[77.578437,12.9065014],[77.578437,12.9064127],[77.5784876,12.9064115],[77.5792423,12.9064774],[77.5793893,12.906473],[77.5802293,12.906448],[77.5802297,12.9063679],[77.5804039,12.9064428],[77.5804029,12.9063636],[77.5805083,12.9064429],[77.5805102,12.9063624],[77.5823011,12.9064271],[77.5825795,12.9063385],[77.582735,12.9064176],[77.5828655,12.9064153],[77.5828918,12.906415],[77.5828951,12.9063347],[77.5854616,12.9063817],[77.585462,12.9063037],[77.5857188,12.9063787],[77.5859325,12.9063832],[77.5859329,12.9063037],[77.5873578,12.9063664],[77.5873582,12.9062954],[77.5876217,12.9063632],[77.5876232,12.9062939],[77.5876601,12.906363],[77.5882796,12.9062901],[77.5883045,12.9063599],[77.5897857,12.9063527],[77.5900683,12.9063513],[77.5900689,12.9062796],[77.590199,12.9063506],[77.5901939,12.9062788],[77.5902911,12.9063502],[77.5903234,12.9063496],[77.5903232,12.9062775],[77.5904777,12.9063493],[77.5906407,12.9063485],[77.5907069,12.9063482],[77.5909675,12.9063469],[77.5911137,12.9062767],[77.5911918,12.906273],[77.5914037,12.9062718],[77.5916746,12.9063429],[77.5916818,12.9062701],[77.5917598,12.9063429],[77.5917887,12.9063429],[77.591789,12.9062695],[77.5919533,12.9063421],[77.5919553,12.9062706],[77.5920073,12.9062682],[77.5921644,12.9063411],[77.5928518,12.9062633],[77.5928638,12.9063377],[77.5930966,12.9063365],[77.5933671,12.9063352],[77.5933661,12.9062603],[77.5935751,12.9063327],[77.5936021,12.9063324],[77.5936013,12.906259],[77.5943414,12.906257],[77.5947409,12.9063272],[77.5947402,12.9062519],[77.5949259,12.9062543],[77.594933,12.9063269],[77.5952066,12.906312],[77.5952016,12.9062384],[77.5955704,12.9061971],[77.5955791,12.9062678],[77.5962066,12.9061103],[77.596815,12.9168633],[77.5968118,12.9167503],[77.5962199,12.9061837],[77.5968711,12.9167502],[77.5968895,12.9167494],[77.5968995,12.9168603],[77.5969249,12.9168625],[77.5969231,12.9167482],[77.5963525,12.9061],[77.5963597,12.9061719],[77.5969502,12.9167473],[77.5964928,12.9061],[77.5965287,12.9061746],[77.5965562,12.9061032],[77.5966176,12.9061885],[77.5966991,12.906128],[77.5972662,12.9168537],[77.5972714,12.916738],[77.5976412,12.9168525],[77.5976529,12.9167352],[77.5972978,12.9063922],[77.5975372,12.906464],[77.5979857,12.9167201],[77.597999,12.9168466],[77.5983456,12.9168378],[77.5983978,12.9167098],[77.5983591,12.9066077],[77.5986682,12.9167003],[77.5988568,12.9168286],[77.599005,12.9166884],[77.5990663,12.9069212],[77.5993184,12.9166761],[77.5993872,12.9070272],[77.5994845,12.9168283],[77.5996484,12.9166602],[77.5996752,12.9168261],[77.5998075,12.9165041],[77.5998075,12.9164522],[77.5998037,12.9149208],[77.5998143,12.9166581],[77.5998223,12.9143956],[77.5998323,12.907145],[77.5998601,12.913022],[77.599861,12.9130701],[77.5998657,12.9142621],[77.5998705,12.9168236],[77.5998662,12.9127288],[77.5998705,12.9136758],[77.5998709,12.9136974],[77.5998711,12.9137446],[77.5999127,12.9168238],[77.5999724,12.9129882],[77.5999729,12.9130248],[77.5999732,12.9127203],[77.5999754,12.9114375],[77.5999765,12.9126666],[77.5999807,12.912599],[77.5999819,12.9168209],[77.5999944,12.9136628],[77.600012,12.9120935],[77.6000172,12.910966],[77.6000324,12.9117644],[77.6000388,12.9142067],[77.6000393,12.91428],[77.6000445,12.9106586],[77.6000462,12.9106394],[77.6000492,12.9106101],[77.6000877,12.9168184],[77.6000922,12.9166528],[77.6000932,12.9165563],[77.6000965,12.9162469],[77.6000965,12.9163077],[77.6001022,12.9158827],[77.6001115,12.9168179],[77.6001191,12.9145292],[77.6001409,12.910648],[77.600169,12.9072412],[77.6001641,12.9104337],[77.6001467,12.9168171],[77.6001893,12.9102017],[77.6002052,12.9091008],[77.6002527,12.9072651],[77.6002848,12.90833],[77.6003045,12.9081397],[77.6003005,12.9090222],[77.6003197,12.9079887],[77.6003264,12.9072862],[77.6003196,12.9088191],[77.6003343,12.9078561],[77.6003391,12.9086117],[77.600354,12.9077289],[77.6003508,12.9084874],[77.6003809,12.9076371],[77.600381,12.9081964],[77.6003883,12.9081259],[77.6003944,12.9080635],[77.6003988,12.9080431],[77.6004076,12.9079739],[77.6004113,12.9075495],[77.600351,12.9166475],[77.6004407,12.907806],[77.6004631,12.9074457],[77.6004819,12.9076553],[77.6004977,12.907246],[77.6004257,12.9168133],[77.6005239,12.9073426],[77.6005244,12.9075457],[77.6005531,12.9074881],[77.6004706,12.9168125],[77.6005727,12.9072684],[77.6005725,12.907437],[77.6005974,12.9073712],[77.6006404,12.9073022],[77.6005999,12.9166431],[77.6007844,12.9168034],[77.6010727,12.9167968],[77.6014053,12.9167877],[77.6017057,12.9167864],[77.601803,12.9166218],[77.6018032,12.9167868],[77.6020571,12.9167877],[77.6027352,12.9167891],[77.6028373,12.91662],[77.6028328,12.9167871],[77.6030053,12.9167837],[77.6030528,12.9166184],[77.6030705,12.9167873],[77.6032644,12.9167865],[77.6040209,12.9166007],[77.6041289,12.9165987],[77.6041228,12.9167828],[77.6053354,12.9167387],[77.6055124,12.9165734],[77.6055872,12.9167263],[77.6058006,12.9167169],[77.6060202,12.9165612],[77.6060417,12.9167057],[77.6064581,12.916692],[77.6066771,12.916686],[77.6067587,12.9165373],[77.6068604,12.9166825],[77.6069933,12.9166799],[77.6072933,12.9166818],[77.6073236,12.9165193],[77.6073789,12.9165183],[77.6074199,12.9165162],[77.6074465,12.9165154],[77.607453,12.9166809],[77.6074798,12.9166807],[77.6087713,12.9166673],[77.6088395,12.9166655],[77.6091537,12.9166571],[77.6092982,12.9166533],[77.6094216,12.9166486],[77.6095413,12.916644],[77.6099288,12.9164578],[77.6100005,12.9164557],[77.6099779,12.9166275],[77.6100047,12.9166272],[77.6100469,12.9164543],[77.610048,12.9166275],[77.6101169,12.9164523],[77.6101244,12.9166266],[77.610188,12.9164506],[77.6101986,12.9164504],[77.6101934,12.9166257],[77.6104644,12.9166229],[77.6105761,12.9166217],[77.6106266,12.9164431],[77.6111654,12.9164264],[77.611996,12.9166071],[77.6122583,12.916417],[77.6123834,12.916416],[77.6124159,12.9166028],[77.6131536,12.9164108],[77.6135306,12.9165508],[77.6136182,12.9165467],[77.6141618,12.9165214],[77.6142171,12.9165183],[77.6144541,12.9163713],[77.6145682,12.9164988],[77.6147915,12.9163499],[77.6150798,12.9164689],[77.6151432,12.9163201],[77.6151308,12.9164652],[77.6151801,12.916317],[77.6151569,12.9164633],[77.6152282,12.9163102],[77.6151961,12.9164605],[77.6152528,12.9163059],[77.6152765,12.9163018],[77.6152434,12.9164549],[77.6152627,12.9164526],[77.6156982,12.9162576],[77.6157275,12.9164081],[77.6158912,12.9162356],[77.6163047,12.9163528],[77.6166979,12.9161412],[77.6166903,12.9163194],[77.6168465,12.9161423],[77.6169634,12.9161411],[77.6170671,12.9163182],[77.6171756,12.9161515],[77.6172407,12.9161579],[77.6174276,12.9161763],[77.6175426,12.9163509],[77.6181144,12.9161879],[77.6186346,12.9161893],[77.6187185,12.9163543],[77.6188446,12.9161852],[77.6191564,12.9161908],[77.6192664,12.9163685],[77.6194127,12.9162034],[77.6194449,12.916389],[77.6196739,12.9162567],[77.6199358,12.9163133],[77.6198819,12.916467],[77.6200281,12.9165077],[77.6201826,12.9165508],[77.6210334,12.9167749],[77.6211055,12.9167977],[77.6212842,12.9168542],[77.6215184,12.9167765],[77.6214901,12.9169193],[77.6216695,12.9169759],[77.6219684,12.9169283],[77.6222334,12.9171705],[77.6223011,12.9170799],[77.6224563,12.9172507],[77.6225966,12.9173014],[77.6226574,12.9172126],[77.6228033,12.9172563],[77.6228281,12.9173744],[77.6229515,12.9172887],[77.6229259,12.9173954],[77.6231607,12.9173238],[77.623148,12.9174482],[77.6233051,12.9173496],[77.6235614,12.9174042],[77.623628,12.9175615],[77.6238004,12.9174551],[77.6238988,12.9174761],[77.6242664,12.9175302],[77.6244169,12.9175524],[77.6243834,12.9176822],[77.6244453,12.9175581],[77.6247091,12.9176109],[77.6247366,12.9177084],[77.6249271,12.9176164],[77.6250219,12.9177105],[77.6251311,12.9176224],[77.6253351,12.9176182],[77.625459,12.9177069],[77.625555,12.9176102],[77.625756,12.9175781],[77.6257316,12.9176757],[77.6259953,12.9175253],[77.6259616,12.91763],[77.6267966,12.9174011],[77.6283794,12.9168049],[77.6283946,12.9169273],[77.6285856,12.9167498],[77.6285971,12.9168787],[77.6287887,12.9167297],[77.6288171,12.9168603],[77.6292164,12.9166941],[77.6293197,12.9166887],[77.629255,12.9168241],[77.6299413,12.9166561],[77.6298974,12.9167787],[77.6306363,12.91673],[77.6309395,12.9166138],[77.6310658,12.9167093],[77.6317612,12.9165405],[77.6322048,12.9165984],[77.6322917,12.9164911],[77.6322913,12.9165892],[77.6323671,12.9164827],[77.6323695,12.9165808],[77.632431,12.9164748],[77.6324797,12.9164688],[77.6332137,12.916497],[77.6342411,12.9163977],[77.6347469,12.9163586],[77.6349622,12.916221],[77.6349283,12.9163445],[77.6350673,12.9163386],[77.6354011,12.9161603],[77.6355416,12.9161318],[77.6355548,12.9163178],[77.6365988,12.9162034],[77.6371053,12.9159544],[77.6371129,12.9161384],[77.6376604,12.915876],[77.6376676,12.916066],[77.6378374,12.9158585],[77.6378503,12.9160405],[77.6380211,12.9158531],[77.6380362,12.9160363],[77.6383242,12.9158631],[77.6383271,12.9160513],[77.638618,12.9159135],[77.6386278,12.9161044],[77.638796,12.9159599],[77.6388181,12.9161633],[77.638971,12.9160148],[77.6393192,12.9161435],[77.6393214,12.9163443],[77.639522,12.9162211],[77.6395229,12.916419],[77.6397255,12.9163044],[77.6397546,12.9165296],[77.6400454,12.9164892],[77.6399923,12.9166649],[77.6402516,12.916636],[77.640176,12.9168025],[77.6403885,12.9169845],[77.6405404,12.9168706],[77.6405148,12.9171],[77.6407524,12.9170896],[77.6407708,12.9172952],[77.6409581,12.917276],[77.6410596,12.9173675],[77.6410422,12.9175032],[77.64108,12.9175322],[77.6416158,12.917917],[77.6415843,12.9180354],[77.6417881,12.9182535],[77.641858,12.9181858],[77.6420374,12.9183781],[77.6420024,12.9184929],[77.6421682,12.9187062],[77.6422358,12.918636],[77.6425007,12.9189907],[77.6429105,12.9197116],[77.6430337,12.9198785],[77.6431146,12.9198251],[77.6432167,12.9199598],[77.6446683,12.921713],[77.6446581,12.9218348],[77.6448271,12.9218808],[77.6447993,12.9219722],[77.6448627,12.9220342],[77.6449199,12.9219742],[77.6449153,12.9220812],[77.6449766,12.9220264],[77.6450577,12.922103],[77.6461505,12.9232131],[77.6464274,12.9233333],[77.6463877,12.9234243],[77.6466165,12.9234869],[77.6466603,12.9236461],[77.6468667,12.9236504],[77.6470719,12.9237689],[77.6472923,12.9238729],[77.6473064,12.9240365],[77.6474406,12.9239272],[77.6473465,12.9240607],[77.6475028,12.9239539],[77.6474166,12.9240899],[77.6475553,12.9241578],[77.6478897,12.9240974],[77.6477617,12.9242507],[77.6478808,12.9242911],[77.648086,12.9241695],[77.6481059,12.9243535],[77.6484417,12.9242385],[77.6484131,12.9244093],[77.6487252,12.9242786],[77.6487145,12.924448],[77.6498746,12.924356],[77.6498597,12.9245269],[77.6501883,12.9243697],[77.6501825,12.9245437],[77.6505067,12.9243654],[77.6505133,12.9245341],[77.650785,12.9243372],[77.6508026,12.9245087],[77.651232,12.9244416],[77.6519362,12.9241272],[77.6519763,12.9242979],[77.6530518,12.9239028],[77.6530883,12.924073],[77.6540371,12.9237179],[77.6541061,12.923864],[77.6543682,12.9236679],[77.6543918,12.9237946],[77.6548266,12.9235804],[77.6549903,12.9235456],[77.6550183,12.9236734],[77.655362,12.923474],[77.6553864,12.923603],[77.6556263,12.9234122],[77.6556513,12.9235332],[77.6559408,12.9233113],[77.6557534,12.9234971],[77.6564713,12.9231438],[77.6565126,12.9232519],[77.6571955,12.9228942],[77.6599561,12.9218994],[77.659737,12.9221233],[77.6602077,12.9218173],[77.6600035,12.9220272],[77.6602414,12.9219543],[77.6620564,12.9213728],[77.66226,12.9213196],[77.662394,12.9212807],[77.6622734,12.9214429],[77.6625996,12.9212181],[77.6627792,12.9211689],[77.6629848,12.921113],[77.6629056,12.921278],[77.6630783,12.9212384],[77.6636681,12.9209154],[77.6635896,12.9211189],[77.6639564,12.9210171],[77.6645539,12.9206777],[77.6643062,12.9209196],[77.6647695,12.9206449],[77.6646317,12.9208374],[77.6647433,12.9208113],[77.6649773,12.9206326],[77.6648463,12.9208114],[77.6651394,12.9206429],[77.6649445,12.9208265],[77.6652808,12.9206571],[77.6650507,12.9208412],[77.6651733,12.9208528],[77.6654636,12.9207104],[77.6652688,12.9208738],[77.6653164,12.9208872],[77.6654482,12.9209153],[77.665695,12.9208011],[77.6655585,12.9209342],[77.6659924,12.9211461],[77.6662615,12.9212738],[77.6665944,12.9212222],[77.6678812,12.9218265],[77.6680325,12.9219032],[77.6680451,12.922053],[77.6686777,12.9222205],[77.6698691,12.9227855],[77.6704761,12.9230635],[77.6704187,12.923181],[77.6717518,12.9236517],[77.6726685,12.9240522],[77.6725796,12.9241634],[77.6727392,12.924084],[77.6726301,12.9241861],[77.6726684,12.9242033],[77.6735137,12.9245832],[77.6737739,12.924529],[77.673894,12.9245828],[77.6738264,12.924724],[77.6740256,12.924633],[77.673989,12.9248019],[77.6741772,12.9247011],[77.6741134,12.9248645],[77.6743673,12.9247796],[77.674278,12.9249455],[77.6747506,12.9251913],[77.6753544,12.9252815],[77.6752903,12.9254641],[77.6756063,12.92562],[77.6762528,12.9257328],[77.6763224,12.9259834],[77.6771438,12.9261543],[77.6770573,12.9263389],[77.6787585,12.9269214],[77.6786437,12.9270879],[77.6796103,12.927337],[77.6795192,12.927507],[77.679761,12.9276205],[77.6802049,12.9276259],[77.680202,12.9278304],[77.6805853,12.9278118],[77.6805921,12.9280152],[77.6807901,12.928109],[77.6814491,12.9282322],[77.6813432,12.9283711],[77.6816974,12.9283494],[77.6818124,12.9284002],[77.6817242,12.9285307],[77.6819058,12.9284422],[77.6819018,12.9286289],[77.6821232,12.9285399],[77.6822419,12.928596],[77.6824197,12.9286801],[77.6825992,12.9289641],[77.6830892,12.929006],[77.6835209,12.9292109],[77.6833531,12.9293316],[77.6844011,12.9296237],[77.6843456,12.9298025],[77.6845781,12.9297067],[77.6845099,12.9298844],[77.6846761,12.9299692],[77.6849048,12.9298784],[77.6848376,12.9300562],[77.6850634,12.9299741],[77.6850002,12.9301497],[77.6853281,12.9301464],[77.6852657,12.9303267],[77.6854791,12.9302495],[77.6854106,12.9304338],[77.6857689,12.9304804],[77.6856951,12.9306664],[77.6859061,12.9305942],[77.6858368,12.9307828],[77.6862527,12.9311544],[77.6864838,12.9313583],[77.6870883,12.9316617],[77.686987,12.9317954],[77.6872247,12.9317906],[77.6873446,12.931904],[77.6872753,12.9320458],[77.6874519,12.9320032],[77.68733,12.9320929],[77.6877366,12.9322663],[77.6880915,12.9327487],[77.688382,12.9328522],[77.688613,12.933062],[77.6894086,12.9339593],[77.6897702,12.9341247],[77.6896834,12.9342068],[77.6900523,12.9343866],[77.6899563,12.9344583],[77.6904559,12.9347613],[77.690477,12.9347802],[77.6903922,12.9348599],[77.6904581,12.9349227],[77.6910678,12.9353086],[77.6910068,12.9354262],[77.6912039,12.9354307],[77.6911134,12.9355201],[77.6917455,12.93594],[77.6919069,12.9360892],[77.6922522,12.9364193],[77.6924183,12.9367277],[77.6925884,12.9367296],[77.6927441,12.9368624],[77.6931763,12.9374551],[77.6933901,12.9374131],[77.6936575,12.9376496],[77.6937945,12.9377708],[77.6943202,12.9382675],[77.6943844,12.9385968],[77.6947172,12.9386544],[77.6946419,12.9388739],[77.6949622,12.9389359],[77.6948818,12.9391416],[77.6951759,12.9392056],[77.695249,12.9396463],[77.6955381,12.9397457],[77.6960019,12.9404921],[77.6962272,12.9408868],[77.6960769,12.9409927],[77.6962219,12.9412314],[77.696385,12.9411823],[77.6963964,12.9412043],[77.6963206,12.9413591],[77.696342,12.9413926],[77.6964809,12.9413486],[77.6966095,12.9416167],[77.6967801,12.9418963],[77.6967186,12.9420199],[77.6968518,12.9420164],[77.6967598,12.9420906],[77.6971235,12.9427148],[77.6973299,12.9428175],[77.6972426,12.9429227],[77.6973929,12.9429462],[77.6974505,12.94307],[77.6973575,12.9431597],[77.6975061,12.9432083],[77.6974798,12.9434401],[77.6977263,12.943783],[77.6976307,12.9438616],[77.6977455,12.9438331],[77.6979027,12.9446434],[77.6979945,12.944896],[77.698351,12.945597],[77.6982555,12.9456419],[77.698388,12.9456991],[77.6983099,12.9457975],[77.6984248,12.9458008],[77.6983397,12.9458825],[77.6985278,12.9460851],[77.6985419,12.946124],[77.6984464,12.9461947],[77.6987508,12.9467376],[77.6986454,12.9468495],[77.6988799,12.9475122],[77.6989918,12.9478403],[77.6991016,12.94782],[77.6990227,12.9479427],[77.6991604,12.9480295],[77.6990541,12.9480686],[77.6992423,12.9483213],[77.6991376,12.9484036],[77.6993,12.9485568],[77.6991982,12.9486586],[77.6992246,12.94877],[77.6993624,12.9488458],[77.6992843,12.9490868],[77.6995123,12.9496882],[77.6994257,12.9499234],[77.6996083,12.9502273],[77.6997166,12.9516441],[77.699806,12.9520254],[77.699924,12.9520018],[77.6999703,12.9521804],[77.7000543,12.9524376],[77.700024,12.9529057],[77.7000909,12.9531761],[77.7001447,12.9534147],[77.7003042,12.9534482],[77.7002819,12.9539913],[77.7004669,12.9541656],[77.7003591,12.954278],[77.7004863,12.9542547],[77.7007318,12.9551885],[77.7005975,12.9552616],[77.70078,12.9553652],[77.7006431,12.9554367],[77.7008196,12.9555166],[77.7006887,12.9555883],[77.700861,12.9556621],[77.7007423,12.955753],[77.7009132,12.9558492],[77.7008432,12.9560428],[77.7009853,12.9560611],[77.7009354,12.9563176],[77.7010685,12.9563408],[77.7009998,12.9565607],[77.701043,12.9567742],[77.7011743,12.9567622],[77.7011116,12.9571351],[77.7012291,12.9571244],[77.7011248,12.9572987],[77.7012505,12.9573319],[77.7011436,12.9575326],[77.7012766,12.9575752],[77.701157,12.9578227],[77.7012865,12.9578177],[77.70129,12.9580066],[77.701165,12.9581443],[77.7011516,12.958667],[77.7012835,12.9586934],[77.701157,12.958918],[77.7012988,12.9589304],[77.7013772,12.9595932],[77.7012244,12.9596219],[77.7013827,12.9596755],[77.7013992,12.9598046],[77.7014054,12.9598805],[77.7012724,12.9599701],[77.7014179,12.9599597],[77.7012808,12.9600388],[77.7012871,12.9600779],[77.7013137,12.9602438],[77.7015077,12.9606063],[77.7013775,12.9606256],[77.7015213,12.9607044],[77.7015292,12.9607614],[77.7014731,12.9612689],[77.701571,12.9618988],[77.7017132,12.9620871],[77.7016775,12.9626351],[77.7018447,12.9629086],[77.7019095,12.9633313],[77.7018772,12.9639554],[77.7020788,12.964504],[77.702084,12.9645394],[77.7021137,12.9647664],[77.7020124,12.964897],[77.7021537,12.9651486],[77.7020429,12.965189],[77.7022052,12.9657474],[77.7021051,12.9660562],[77.7021151,12.9662472],[77.702243,12.9662449],[77.7021127,12.9663781],[77.7021116,12.9664384],[77.7022413,12.9665093],[77.7020852,12.9666602],[77.7020713,12.9667337],[77.7022221,12.9667348],[77.7020328,12.9669365],[77.7020248,12.9669743],[77.7021829,12.9669762],[77.7021721,12.967009],[77.7019351,12.9672994],[77.7019091,12.967376],[77.7020565,12.9674383],[77.7018715,12.967487],[77.7020147,12.9675504],[77.7017788,12.9677092],[77.7019297,12.9677238],[77.7018011,12.9679483],[77.7017731,12.9679972],[77.7016021,12.9680489],[77.701542,12.9681628],[77.7016515,12.9682077],[77.7015439,12.9683939],[77.701339,12.9685056],[77.7009667,12.9691119],[77.7010195,12.9692593],[77.7008094,12.9693681],[77.7007677,12.9696685],[77.6999326,12.9707958],[77.6992843,12.9721137],[77.6990133,12.9723167],[77.6990113,12.9725323],[77.6987075,12.9728336],[77.6986342,12.973155],[77.6984356,12.9732931],[77.6984995,12.9733869],[77.6980287,12.9741971],[77.6976897,12.9747865],[77.6974744,12.9749177],[77.6973993,12.9750546],[77.6973056,12.9752096],[77.6970527,12.9756585],[77.6969318,12.975834],[77.6970081,12.9759766],[77.6963668,12.9767005],[77.6965209,12.9767568],[77.6963956,12.9769655],[77.695573,12.9780153],[77.695739,12.9780872],[77.6946899,12.9794714],[77.6941972,12.980272],[77.6943551,12.9803763],[77.693946,12.9806782],[77.6940909,12.9807759],[77.6938873,12.9811049],[77.69384,12.9811796],[77.6933241,12.9816707],[77.693507,12.9817047],[77.6934824,12.9817435],[77.6930993,12.9820642],[77.6929132,12.9823901],[77.693056,12.982416],[77.6930477,12.9824291],[77.6926963,12.9827317],[77.6928132,12.9827889],[77.6926578,12.982789],[77.6923206,12.9833394],[77.6922662,12.9834281],[77.6921805,12.9835672],[77.6922958,12.9835935],[77.6922813,12.9836172],[77.6919341,12.9839601],[77.6920312,12.9840248],[77.6918593,12.9843072],[77.6915905,12.9847487],[77.6914589,12.984739],[77.6908133,12.986018],[77.6904086,12.9864442],[77.6899642,12.9871978],[77.6900622,12.9872609],[77.6898364,12.987632],[77.6896245,12.987777],[77.6897207,12.9878304],[77.6896253,12.9879941],[77.6894992,12.9879907],[77.6893446,12.9882449],[77.6892454,12.9883925],[77.6893479,12.9884558],[77.6892827,12.9885645],[77.688987,12.9887772],[77.6888008,12.989069],[77.6889727,12.9891258],[77.6887217,12.9895539],[77.688428,12.9897156],[77.6885773,12.9898034],[77.6881617,12.9901138],[77.6882588,12.9902763],[77.6878437,12.9905557],[77.6877185,12.99102],[77.687503,12.991006],[77.6869837,12.9916945],[77.6870875,12.9918576],[77.6863519,12.9925148],[77.6864893,12.9926511],[77.6862546,12.9929536],[77.6859612,12.9931398],[77.686028,12.9932554],[77.685747,12.9936296],[77.6854165,12.9940723],[77.6851525,12.9942241],[77.685118,12.9942712],[77.6850903,12.994309],[77.6851485,12.9944312],[77.6848346,12.994658],[77.6841858,12.9957588],[77.6838492,12.9962198],[77.6836193,12.9963559],[77.6837111,12.9964118],[77.6835838,12.9966219],[77.68339,12.9967099],[77.6832623,12.9969071],[77.6828366,12.99783],[77.6821993,12.9988815],[77.681801,12.9992642],[77.68174,12.9993649],[77.6814787,12.9997852],[77.6815278,12.9999836],[77.6813683,12.9999341],[77.681275,13.0000227],[77.6812176,13.0000784],[77.6814093,13.0001435],[77.6813324,13.0002067],[77.6811371,13.0001409],[77.6812475,13.0002709],[77.680958,13.0002346],[77.6811425,13.0003366],[77.6808562,13.000269],[77.6810399,13.00038],[77.6806885,13.0003019],[77.6809463,13.0004128],[77.6808563,13.0004366],[77.6804889,13.0003185],[77.680756,13.0004519],[77.6803539,13.0003208],[77.6806363,13.0004558],[77.6661756,12.9954787],[77.6660316,12.995443],[77.6669519,12.9957725],[77.6659208,12.995429],[77.6657879,12.9954222],[77.667752,12.996101],[77.6799744,13.0003272],[77.6656681,12.9954304],[77.6797879,13.0003204],[77.668285,12.9963391],[77.6797088,13.000317],[77.6800689,13.0004596],[77.6690663,12.9966658],[77.6690407,12.9966583],[77.6795073,13.0003083],[77.6692421,12.9967435],[77.6700327,12.9970202],[77.665532,12.9954657],[77.6693708,12.9968004],[77.6797994,13.0004478],[77.6696738,12.9969289],[77.6705405,12.997242],[77.6792839,13.0003019],[77.6796302,13.000427],[77.6675635,12.9962255],[77.6663131,12.9958066],[77.6660772,12.9957328],[77.6791347,13.0002897],[77.6654052,12.9955058],[77.6658877,12.9957005],[77.6672598,12.9961815],[77.6711509,12.9975409],[77.6789239,13.0002725],[77.6685289,12.9966426],[77.6686769,12.9967065],[77.6714728,12.9976881],[77.6657332,12.9957002],[77.6689816,12.9968382],[77.6787633,13.0002695],[77.6692287,12.996938],[77.6791245,13.0004114],[77.6693888,12.9970148],[77.6652798,12.9955774],[77.671896,12.9979011],[77.6786586,13.0002788],[77.6721957,12.9980397],[77.6788948,13.0003961],[77.6655804,12.9957244],[77.678369,13.00026],[77.6727204,12.9983078],[77.6696003,12.9972142],[77.6651829,12.9956591],[77.6781505,13.0002569],[77.6654265,12.9957717],[77.6783496,13.0003599],[77.6699533,12.9973963],[77.6701123,12.9974686],[77.670498,12.997625],[77.6782002,13.0003513],[77.6706449,12.9976937],[77.6736064,12.9987562],[77.67368,12.9987903],[77.6708406,12.9977854],[77.6780619,13.0003548],[77.673774,12.9988381],[77.6650866,12.9957694],[77.6652783,12.9958475],[77.6779586,13.0003626],[77.677647,13.0002742],[77.6715413,12.9981135],[77.671595,12.9981386],[77.6717284,12.9981983],[77.6745599,12.9992304],[77.6745868,12.9992429],[77.6721315,12.9983785],[77.677766,13.000391],[77.6747484,12.9993184],[77.6752243,12.9994931],[77.6756297,12.9996475],[77.6750835,12.9994656],[77.6750381,12.9994535],[77.6763464,12.9999251],[77.6651425,12.99594],[77.6764394,12.9999818],[77.6775323,13.0003968],[77.6771804,13.0002716],[77.6649631,12.99592],[77.6730545,12.9988173],[77.6770342,13.000254],[77.6768984,13.0002205],[77.6733556,12.9989605],[77.673488,12.9990235],[77.6768064,13.000214],[77.6766285,13.0001628],[77.6766873,13.0001853],[77.6736621,12.999116],[77.6741325,12.9993332],[77.6650166,12.9960603],[77.6767791,13.0004154],[77.6754253,12.9999607],[77.6648288,12.9961314],[77.6766034,13.0004202],[77.6765114,13.0004176],[77.6763894,13.0003982],[77.6648912,12.9962296],[77.6762539,13.0003526],[77.6647092,12.9963271],[77.6647997,12.9963786],[77.6646758,12.9965802],[77.6645456,12.9966165],[77.664413,12.9968261],[77.6642016,12.9974539],[77.6638181,12.9980942],[77.6637416,12.9982338],[77.6636447,12.998197],[77.6635934,12.9983124],[77.6636891,12.9983524],[77.663557,12.998439],[77.6636575,12.9984963],[77.6636432,12.998628],[77.6635405,12.9985923],[77.6636195,12.998913],[77.6635154,12.9989315],[77.6635066,13.0003802],[77.6634018,13.0003768],[77.663444,13.0014355],[77.6633547,13.0014278],[77.6633501,13.0014908],[77.6634347,13.0015722],[77.6633368,13.0017603],[77.6634148,13.0018624],[77.663322,13.0019816],[77.6633167,13.0020603],[77.6633621,13.0026976],[77.6632014,13.0037853],[77.6632748,13.0041314],[77.663252,13.0044312],[77.6631359,13.0045963],[77.663224,13.0047567],[77.6631041,13.0048782],[77.6631801,13.0050763],[77.6630684,13.0051021],[77.6630318,13.0052997],[77.6629111,13.0060139],[77.662694,13.0073478],[77.6627021,13.0078658],[77.6625989,13.0079104],[77.6625714,13.0081079],[77.6626536,13.0082045],[77.6625474,13.0083456],[77.6626254,13.0085624],[77.6624841,13.0092989],[77.6624908,13.0105238],[77.6623923,13.0105105],[77.6623675,13.0108381],[77.662442,13.011263],[77.662435,13.0113688],[77.6623298,13.0113587],[77.6623241,13.0129976],[77.6622116,13.0129921],[77.6622905,13.0135139],[77.6621818,13.0135086],[77.6622163,13.0149171],[77.6622096,13.0150439],[77.6620879,13.0150048],[77.6620795,13.0150998],[77.6620704,13.0152148],[77.6621727,13.0154035],[77.6621357,13.0157194],[77.6620235,13.0157691],[77.6619841,13.0159321],[77.6620661,13.0160503],[77.661935,13.0160932],[77.6619932,13.0162096],[77.6618626,13.0162291],[77.6619,13.0163613],[77.6618009,13.0163127],[77.6616998,13.0164025],[77.6617699,13.0164783],[77.6615542,13.01648],[77.6616183,13.0165714],[77.6613889,13.0166711],[77.6611918,13.0167438],[77.6609474,13.0167257],[77.6607173,13.0169188],[77.6603413,13.0169753],[77.6602915,13.0169961],[77.6597789,13.0172101],[77.6590266,13.0176314],[77.6590192,13.0176349],[77.6589118,13.0175644],[77.6589212,13.0176815],[77.6584511,13.0177474],[77.6584833,13.0178604],[77.6575913,13.0181285],[77.6576677,13.0182098],[77.6557572,13.0189222],[77.6558052,13.0190304],[77.6553886,13.0190794],[77.6554416,13.019196],[77.6544616,13.019432],[77.654518,13.0195488],[77.654318,13.0196322],[77.6536135,13.0197476],[77.6536882,13.0198957],[77.6534434,13.0198174],[77.6533143,13.0198703],[77.6532413,13.0199002],[77.6530151,13.019993],[77.6527024,13.0203222],[77.651383,13.0207108],[77.6484412,13.0221658],[77.6481858,13.0220962],[77.648029,13.0221641],[77.6479587,13.0221945],[77.6480236,13.0223544],[77.6475871,13.0223556],[77.6474188,13.0224285],[77.6475058,13.0225883],[77.6473443,13.0226588],[77.6472399,13.0227044],[77.6468343,13.0226871],[77.6469229,13.0228427],[77.646063,13.0230209],[77.646136,13.0231888],[77.6448025,13.0235663],[77.6448854,13.0237521],[77.6422841,13.0246819],[77.64235,13.0248646],[77.6411291,13.02519],[77.6412014,13.0253635],[77.64087,13.0254923],[77.6407944,13.0255257],[77.6406842,13.0253846],[77.6403932,13.0255215],[77.640117,13.0256515],[77.6400363,13.0258605],[77.63992,13.0257278],[77.6398611,13.0259289],[77.6397175,13.025789],[77.6396723,13.0259763],[77.6395199,13.0258307],[77.63944,13.025846],[77.6393602,13.0258612],[77.6373541,13.0264053],[77.6371883,13.0264383],[77.6370499,13.0263016],[77.6371214,13.0264516],[77.636971,13.0263172],[77.6368023,13.0265174],[77.6364697,13.0264271],[77.6363506,13.0264542],[77.6363743,13.0266221],[77.6360781,13.0266945],[77.6359065,13.0265551],[77.6356586,13.02662],[77.6355345,13.0266525],[77.6355945,13.0268293],[77.6352595,13.0267224],[77.63468,13.0269027],[77.6347652,13.027085],[77.6339832,13.0271542],[77.6340562,13.0273404],[77.633354,13.0274186],[77.6331794,13.027492],[77.6329765,13.0277901],[77.6325054,13.0277808],[77.6324442,13.0280182],[77.6323161,13.0278659],[77.6323046,13.028078],[77.6321268,13.0279509],[77.6321856,13.0281275],[77.632023,13.0280166],[77.6320693,13.0282243],[77.6319316,13.0280911],[77.6319801,13.0283262],[77.6318525,13.0281864],[77.6318925,13.0284724],[77.6317778,13.0282936],[77.6317154,13.0284076],[77.6316199,13.0286197],[77.6314004,13.0291201],[77.6314701,13.0293353],[77.6313311,13.029278],[77.6313174,13.0293092],[77.6312369,13.0294926],[77.6312105,13.0298656],[77.6310954,13.0298151],[77.6306131,13.0308244],[77.6301851,13.0319478],[77.6300816,13.0318931],[77.6293752,13.0333133],[77.628984,13.0343603],[77.628856,13.0346004],[77.6285852,13.0348544],[77.62848,13.0353203],[77.6283771,13.0352451],[77.6281181,13.0357315],[77.6279085,13.0363785],[77.6277697,13.03663],[77.6276056,13.0366392],[77.627647,13.036806],[77.6275098,13.0367717],[77.6274949,13.0369701],[77.6273851,13.0369096],[77.6272239,13.0370667],[77.6271379,13.0373016],[77.6270593,13.0372059],[77.6268662,13.0373489],[77.6269051,13.03746],[77.6264577,13.0377574],[77.6263981,13.0376467],[77.6263005,13.0377104],[77.626316,13.0378499],[77.6261078,13.037973],[77.6260757,13.0379996],[77.6260133,13.0378915],[77.6259769,13.0380914],[77.6259241,13.0379678],[77.6258595,13.03822],[77.6257699,13.0381258],[77.6258018,13.0382923],[77.6257295,13.0381672],[77.6256454,13.0382587],[77.6255936,13.0385915],[77.625421,13.0385459],[77.6252226,13.0391275],[77.6249827,13.0394532],[77.6248816,13.0392688],[77.6245224,13.0400309],[77.6244382,13.0398631],[77.6243484,13.0402551],[77.62424,13.0403948],[77.6240525,13.0403531],[77.6240296,13.0406538],[77.623929,13.0405108],[77.6237966,13.0406471],[77.623803,13.0408934],[77.6236008,13.0408113],[77.6236445,13.0410065],[77.6234194,13.0409133],[77.6234701,13.0410948],[77.6232752,13.0409682],[77.6232637,13.041166],[77.6231218,13.0410121],[77.6230759,13.0412098],[77.6229136,13.0410434],[77.6228755,13.0412301],[77.6227854,13.0410616],[77.6226422,13.0410667],[77.6226667,13.0412308],[77.6223858,13.0410604],[77.6223149,13.0412142],[77.6222759,13.0412139],[77.6220277,13.0410528],[77.6219831,13.0412015],[77.6215483,13.0410373],[77.6211224,13.0411657],[77.6204108,13.041146],[77.6201412,13.0411385],[77.6199234,13.0411317],[77.6198433,13.0411292],[77.6190967,13.0411086],[77.6187161,13.040945],[77.618647,13.0409432],[77.6180848,13.0409079],[77.6177296,13.0410471],[77.6176181,13.0408804],[77.6173509,13.040856],[77.617336,13.0410305],[77.6172307,13.0410344],[77.6172129,13.0410365],[77.6170994,13.04105],[77.6170215,13.0410593],[77.6169764,13.0408795],[77.6167333,13.041113],[77.6166164,13.0411356],[77.6162952,13.0412137],[77.6160587,13.0411025],[77.6160832,13.0412847],[77.6159112,13.0411417],[77.6158932,13.0413381],[77.6146478,13.0415572],[77.6146847,13.041742],[77.61449,13.0416139],[77.614481,13.0418298],[77.614347,13.0416871],[77.6143384,13.0419102],[77.6141614,13.0420222],[77.6140278,13.0418859],[77.6140284,13.0421031],[77.6139059,13.0419536],[77.6138732,13.0421761],[77.6137563,13.0420245],[77.6137194,13.0422349],[77.6136157,13.0420755],[77.6135805,13.0420853],[77.6135801,13.0422761],[77.6135427,13.0422872],[77.6134552,13.0421186],[77.6132842,13.0423457],[77.6131734,13.04218],[77.6125608,13.0425252],[77.6110671,13.0426834],[77.6107303,13.0429552],[77.6104578,13.0430167],[77.6103635,13.0428674],[77.6096311,13.0431991],[77.6096085,13.0430737],[77.6084504,13.0434677],[77.6084334,13.0433694],[77.6078589,13.0434709],[77.6073973,13.0436566],[77.6072042,13.0435763],[77.607125,13.0436957],[77.606968,13.043613],[77.6068609,13.0437343],[77.6068347,13.0436289],[77.6066418,13.0436432],[77.6066284,13.0437501],[77.6063946,13.0436545],[77.6063821,13.04376],[77.6036749,13.0436274],[77.6035829,13.043729],[77.6024357,13.0437294],[77.6016445,13.0437297],[77.6016181,13.0436279],[77.6014511,13.0436319],[77.601448,13.0437336],[77.6010305,13.0437419],[77.6008769,13.043745],[77.6003423,13.0436585],[77.6003273,13.0437559],[77.6000225,13.0436662],[77.5999061,13.0437643],[77.5998058,13.0436588],[77.5996638,13.043739],[77.599635,13.0436394],[77.599463,13.0437109],[77.5994459,13.0436072],[77.5992855,13.0435642],[77.5992782,13.0436664],[77.5991223,13.043608],[77.5991173,13.0434938],[77.5989699,13.0434212],[77.5989627,13.0435313],[77.5989165,13.0435037],[77.5988051,13.0433203],[77.5988021,13.0434353],[77.5986002,13.0432947],[77.5974366,13.0422789],[77.5972255,13.0421366],[77.5972085,13.0422409],[77.5970605,13.0420457],[77.5970433,13.0421433],[77.5968865,13.0419657],[77.5968687,13.042066],[77.5967389,13.0419115],[77.5966792,13.041994],[77.5965921,13.041879],[77.5965017,13.0419577],[77.5964411,13.0418655],[77.5962744,13.0419472],[77.5962265,13.0418613],[77.5945382,13.0419966],[77.5944588,13.041896],[77.59429,13.0420129],[77.5942685,13.0419086],[77.5941199,13.0420555],[77.5941146,13.0419218],[77.5938775,13.041947],[77.5937768,13.04217],[77.5937526,13.041958],[77.5935212,13.0420245],[77.5927709,13.042495],[77.5925617,13.0423305],[77.5923982,13.0426226],[77.5917994,13.0427976],[77.5916681,13.0425837],[77.5914477,13.0428978],[77.5913568,13.0429237],[77.5913527,13.0426643],[77.591224,13.0429668],[77.5912454,13.0426788],[77.5910894,13.0427005],[77.5910458,13.0429168],[77.5909736,13.0427171],[77.5908765,13.042981],[77.5908696,13.0427258],[77.5908044,13.0427244],[77.5906466,13.0430244],[77.5906305,13.0427065],[77.5905633,13.0426923],[77.5905051,13.0426897],[77.5902694,13.0430588],[77.5902393,13.0427099],[77.5901426,13.0427518],[77.5900801,13.0430506],[77.5900575,13.0430481],[77.5900804,13.042763],[77.5900175,13.0427814],[77.5898656,13.0430035],[77.5898514,13.0430017],[77.5898692,13.0427983],[77.5898042,13.0429955],[77.5897137,13.0427985],[77.5895669,13.0429282],[77.5895284,13.0427789],[77.5893148,13.0427369],[77.5887616,13.0427082],[77.5887603,13.0425898],[77.58863,13.0425638],[77.588598,13.0426794],[77.5885022,13.0425546],[77.5884403,13.0426716],[77.5883775,13.0425574],[77.5882681,13.0426846],[77.5882234,13.0425741],[77.5880616,13.0425962],[77.5878306,13.0426411],[77.5876552,13.0427735],[77.5868557,13.042807],[77.5866219,13.0428593],[77.5862296,13.0430505],[77.5858518,13.0430314],[77.5856549,13.0430777],[77.5855913,13.0431994],[77.5854089,13.0432491],[77.5854148,13.0431367],[77.5852372,13.0433144],[77.5852554,13.0431868],[77.5850736,13.0433849],[77.5850735,13.0432609],[77.5849052,13.0434686],[77.5849128,13.043338],[77.5848991,13.0433459],[77.5847523,13.0435574],[77.5847455,13.0434345],[77.584594,13.0436541],[77.5845908,13.0436562],[77.5843607,13.0438056],[77.5834038,13.0443215],[77.5831793,13.0444626],[77.5829525,13.0447306],[77.5827406,13.0448639],[77.5824933,13.0450362],[77.5825226,13.0448755],[77.5822846,13.0451827],[77.5823229,13.045013],[77.5821696,13.0451246],[77.5821103,13.0453133],[77.5812328,13.0460731],[77.5811674,13.0459822],[77.5809243,13.046176],[77.5808679,13.0463688],[77.5808848,13.0462078],[77.5807231,13.0464864],[77.5807269,13.046335],[77.5805984,13.0465787],[77.5805131,13.0464977],[77.5799964,13.0468862],[77.5797923,13.0471815],[77.5797308,13.0470844],[77.579626,13.0472938],[77.5795431,13.0472124],[77.5794436,13.047401],[77.5793768,13.0473117],[77.5792403,13.0474925],[77.5792158,13.0473879],[77.5790501,13.0475618],[77.5788564,13.0476115],[77.5788322,13.0475003],[77.5786686,13.0476486],[77.5786536,13.0475331],[77.5784698,13.0476787],[77.5783667,13.047687],[77.5782929,13.0475825],[77.5782112,13.0476897],[77.5779964,13.0476853],[77.5780028,13.0475868],[77.5764383,13.0475277],[77.5764504,13.0474297],[77.5760399,13.0474846],[77.576039,13.0473869],[77.5753614,13.0474337],[77.5753708,13.0473265],[77.5738683,13.0472346],[77.573736,13.0473401],[77.5734553,13.0473227],[77.5734854,13.0472124],[77.573408,13.0473204],[77.5728819,13.047289],[77.5727356,13.0471941],[77.5727033,13.0472788],[77.5726089,13.0471825],[77.571416,13.0471135],[77.5709652,13.0470867],[77.5703619,13.0470508],[77.5701363,13.0471316],[77.5701205,13.0470377],[77.5699836,13.0471228],[77.5699835,13.0470202],[77.5699568,13.0470168],[77.5697503,13.0469881],[77.5696919,13.04698],[77.5695785,13.0470639],[77.5693698,13.0470274],[77.5692083,13.0470116],[77.5690717,13.0468941],[77.5687776,13.0469764],[77.5686936,13.0468731],[77.5686535,13.0469663],[77.5678782,13.0468131],[77.5678356,13.0469046],[77.5671136,13.0467217],[77.5663813,13.0467529],[77.5661372,13.0467242],[77.5661562,13.0466249],[77.5660221,13.046604],[77.5659312,13.0466851],[77.5659041,13.0465779],[77.5657327,13.0466303],[77.5657726,13.0465387],[77.5656114,13.0464731],[77.5655074,13.0465545],[77.5654347,13.0464028],[77.565325,13.0464787],[77.5652818,13.046327],[77.5651475,13.0463897],[77.5650748,13.046219],[77.5649731,13.0462722],[77.5649509,13.0461392],[77.5647886,13.0461495],[77.5633952,13.0451278],[77.5626368,13.0446116],[77.5626624,13.0445078],[77.5623865,13.0443345],[77.5623396,13.0444191],[77.5618458,13.044059],[77.5618868,13.0439639],[77.561741,13.0438706],[77.561692,13.0439608],[77.5615994,13.0437939],[77.5614405,13.0438314],[77.5614722,13.0437391],[77.5613017,13.0437842],[77.5613365,13.0436857],[77.5612044,13.0437517],[77.561241,13.0436546],[77.5610708,13.0437216],[77.5611018,13.0436248],[77.5609697,13.0436986],[77.5609833,13.043605],[77.5608535,13.0436828],[77.5606923,13.0436772],[77.5607208,13.0435902],[77.5586762,13.0435891],[77.558458,13.0436903],[77.5584073,13.0435888],[77.5582729,13.0437033],[77.558249,13.043594],[77.5580556,13.0437242],[77.5580827,13.0436097],[77.5572238,13.0438364],[77.5572052,13.0437227],[77.5567734,13.0439027],[77.5567559,13.0437957],[77.5554968,13.0440038],[77.5553493,13.0441449],[77.5552718,13.0440328],[77.5551347,13.0441711],[77.5550974,13.0440459],[77.5549606,13.0441739],[77.5549714,13.0440485],[77.5547631,13.0441456],[77.5547688,13.0440422],[77.5546148,13.0441243],[77.5546408,13.0440194],[77.5542791,13.0440221],[77.5541622,13.0439905],[77.554185,13.0439115],[77.5540862,13.0438866],[77.5540377,13.0439568],[77.5537828,13.0438094],[77.5537428,13.0438669],[77.5534951,13.0437262],[77.553364,13.0437461],[77.5533839,13.0436934],[77.5533395,13.0437383],[77.5533654,13.0436879],[77.5532133,13.0436967],[77.5531934,13.0436902],[77.5531181,13.0436654],[77.5526481,13.0434541],[77.5521451,13.0433596],[77.5516284,13.0431218],[77.550967,13.0429142],[77.5508593,13.0429551],[77.5508687,13.0428832],[77.5505667,13.0428604],[77.5505499,13.0427769],[77.5502098,13.0426739],[77.5501574,13.042728],[77.549907,13.042647],[77.5498494,13.0425599],[77.5496082,13.0425628],[77.5493322,13.0424793],[77.5489705,13.0423587],[77.5489997,13.0422911],[77.5486009,13.0422296],[77.5483844,13.0421529],[77.5483421,13.0420645],[77.5480218,13.0420243],[77.547706,13.0418972],[77.5477068,13.0418154],[77.5476035,13.0417749],[77.5474362,13.0417886],[77.5473397,13.0417497],[77.5473712,13.0416838],[77.5472035,13.0416954],[77.5471556,13.0416763],[77.5471885,13.0416205],[77.546926,13.0415912],[77.5469562,13.04154],[77.5467041,13.0415114],[77.5466459,13.0414258],[77.5459441,13.0412426],[77.5457631,13.0411408],[77.5453887,13.0410665],[77.5454063,13.0410244],[77.5451488,13.0409905],[77.5451674,13.0409465],[77.5449273,13.0408964],[77.5449484,13.0408511],[77.5447155,13.0407795],[77.5447426,13.0407441],[77.5445166,13.0406562],[77.5445433,13.0406154],[77.5443239,13.0405123],[77.5443475,13.0404684],[77.5439574,13.0402001],[77.5436919,13.0399752],[77.5433134,13.0396226],[77.5431713,13.0394383],[77.5431374,13.0394654],[77.5428985,13.0392693],[77.542705,13.0390274],[77.5426592,13.0390623],[77.5425198,13.0388651],[77.5424758,13.0389054],[77.5422763,13.0387438],[77.5421557,13.0386429],[77.5421009,13.0385185],[77.5420599,13.0385467],[77.541994,13.0383738],[77.5419493,13.0383914],[77.5419313,13.0383553],[77.5418949,13.0382821],[77.5419353,13.0382012],[77.5418629,13.0381121],[77.5419041,13.0380256],[77.5418551,13.038067],[77.5418272,13.0375906],[77.5417542,13.0376067],[77.5417462,13.0375644],[77.541679,13.0367936],[77.5416036,13.0368094],[77.541544,13.036494],[77.5415107,13.0359234],[77.5414861,13.035809],[77.5413232,13.0354717],[77.5413093,13.0354074],[77.5412415,13.0350936],[77.5410437,13.0341781],[77.5410097,13.0335926],[77.5409363,13.0332512],[77.5408211,13.0327342],[77.5407271,13.0326377],[77.5407045,13.0325089],[77.5407668,13.0324369],[77.540668,13.0322864],[77.540396,13.0307503],[77.5403422,13.0304732],[77.5402684,13.0296877],[77.5401704,13.029594],[77.5402163,13.0294164],[77.5401017,13.0292423],[77.5401527,13.0291115],[77.5400805,13.0291736],[77.5401238,13.0290636],[77.5400472,13.0291347],[77.5400063,13.029117],[77.5399664,13.0291182],[77.5399122,13.0291442],[77.5400778,13.0289633],[77.5396994,13.0292665],[77.5400076,13.0288103],[77.5398815,13.0288798],[77.5389417,13.0296743],[77.539779,13.0288673],[77.5397024,13.0289093],[77.539552,13.0289918],[77.5394299,13.0290584],[77.5393428,13.0291058],[77.538489,13.0298679],[77.5391672,13.029212],[77.5390395,13.0293114],[77.5377179,13.0303022],[77.5373252,13.0304684],[77.5372402,13.0305198],[77.5373291,13.0302862],[77.5372469,13.0303393],[77.5371664,13.0303891],[77.5371057,13.0302817],[77.5371691,13.0302122],[77.5370945,13.0302595],[77.5371376,13.0301572],[77.5370622,13.0301958],[77.5370565,13.0301845],[77.5367996,13.029718],[77.5368368,13.0296286],[77.5365655,13.0293068],[77.5366203,13.0292498],[77.5364477,13.0291002],[77.5364182,13.028888],[77.5362976,13.0288411],[77.5362745,13.0288011],[77.5361635,13.0286153],[77.5361794,13.0284871],[77.5361123,13.0285296],[77.536081,13.028482],[77.5360242,13.0282147],[77.5358458,13.0279053],[77.5355777,13.0276787],[77.5356509,13.0275749],[77.5355151,13.0273415],[77.5353222,13.027236],[77.5353283,13.0270206],[77.5351966,13.0267944],[77.5350506,13.0267674],[77.5350372,13.0267355],[77.5350161,13.0267066],[77.5350087,13.0264717],[77.5341333,13.0249679],[77.5340597,13.0250185],[77.5341137,13.0249312],[77.5340797,13.0248676],[77.5340018,13.024915],[77.5339913,13.0248961],[77.5339474,13.0248174],[77.5336638,13.0240888],[77.5335526,13.0238806],[77.5331981,13.0232861],[77.5331224,13.0231659],[77.5330138,13.0231929],[77.5329693,13.0228593],[77.5328599,13.0226402],[77.5327518,13.0226643],[77.5326949,13.0222405],[77.5325828,13.0222411],[77.5325131,13.0217273],[77.5324124,13.0217622],[77.5323994,13.0213183],[77.5322865,13.0213366],[77.5323258,13.020913],[77.5322169,13.0209235],[77.5322556,13.0203932],[77.5321518,13.0204075],[77.5321248,13.0196347],[77.5320181,13.0196639],[77.5320527,13.019233],[77.5319276,13.0192535],[77.5319043,13.0191436],[77.5320033,13.0189842],[77.5319918,13.0189266],[77.5319693,13.018788],[77.5318424,13.0188609],[77.5319221,13.0185856],[77.5317898,13.0186173],[77.5317367,13.018386],[77.5316675,13.0181624],[77.5315986,13.0179383],[77.5315661,13.0178356],[77.5316252,13.0175496],[77.5315617,13.0173447],[77.5313275,13.0170671],[77.531098,13.0162967],[77.5309853,13.0159624],[77.5311059,13.0158618],[77.5309713,13.0159209],[77.5305411,13.0147573],[77.5306311,13.0146762],[77.5305265,13.0147246],[77.5303647,13.0143614],[77.5302125,13.0140464],[77.5300644,13.0134816],[77.5299539,13.0135322],[77.5298725,13.0131766],[77.5296874,13.012884],[77.5295552,13.0129242],[77.5290392,13.0122085],[77.5291157,13.0121031],[77.5289951,13.0121439],[77.5290717,13.0120404],[77.5289387,13.0120613],[77.5289652,13.0118993],[77.5288474,13.0119571],[77.5285064,13.0115679],[77.5285934,13.0114743],[77.5282139,13.0112677],[77.5283168,13.011197],[77.5279137,13.0109641],[77.5279296,13.0108174],[77.5278156,13.0108548],[77.5276444,13.0106636],[77.5277415,13.0106077],[77.5274982,13.0104675],[77.5273265,13.0102049],[77.5274178,13.010137],[77.5272949,13.00991],[77.5271843,13.0099567],[77.5271557,13.0096451],[77.5270313,13.0096751],[77.5270377,13.0093389],[77.5269108,13.0093747],[77.5269974,13.0092266],[77.5269264,13.0090289],[77.5267952,13.0090487],[77.5267387,13.0088382],[77.5268148,13.0085675],[77.5266729,13.0084923],[77.5266571,13.0084092],[77.5267893,13.008274],[77.5267833,13.0080961],[77.5266409,13.0080873],[77.5266335,13.0075961],[77.526786,13.0072587],[77.5267868,13.0070065],[77.5266574,13.0061372],[77.5267914,13.0056025],[77.5266662,13.0056133],[77.5267727,13.0051954],[77.526655,13.0051965],[77.5267463,13.0048722],[77.5266229,13.004905],[77.5265872,13.0046781],[77.5267011,13.0045947],[77.5265526,13.0045209],[77.5266503,13.0043202],[77.5265082,13.0043571],[77.5264122,13.0040428],[77.5265449,13.0039816],[77.5263869,13.0036405],[77.5263284,13.0035005],[77.5261531,13.0034639],[77.5260873,13.0033144],[77.526198,13.0031887],[77.5261134,13.0029845],[77.5259498,13.0030237],[77.5260182,13.0027408],[77.5258991,13.0024964],[77.5257484,13.0025448],[77.525723,13.00249],[77.5255369,13.0017466],[77.5253874,13.0017804],[77.5247347,13.0004619],[77.5248036,13.0003462],[77.5242809,12.9994569],[77.5243851,12.9994117],[77.524203,12.9990162],[77.5240803,12.9990501],[77.5239621,12.998794],[77.5237428,12.9983129],[77.523683,12.9981864],[77.5237991,12.9981368],[77.523647,12.9978185],[77.5235164,12.9978553],[77.5236201,12.9977697],[77.5234714,12.997766],[77.5234405,12.9976991],[77.5234045,12.997621],[77.523526,12.9975663],[77.5233949,12.9976003],[77.5233856,12.9972617],[77.5230032,12.9967519],[77.522984,12.9963904],[77.5227829,12.9962583],[77.5228856,12.9961877],[77.5224492,12.9955498],[77.5224622,12.9953161],[77.5223654,12.9951167],[77.5221413,12.9949071],[77.5218785,12.9943482],[77.5219904,12.9942914],[77.5218439,12.9942746],[77.5219549,12.9942183],[77.5218171,12.9942176],[77.5218869,12.9940652],[77.5217451,12.9940644],[77.5217094,12.9939886],[77.5218327,12.9939431],[77.521523,12.9932577],[77.5215157,12.9932416],[77.5213542,12.9931596],[77.5213166,12.9930685],[77.5214297,12.9930322],[77.5212775,12.9926584],[77.5211649,12.9926862],[77.5208947,12.9919342],[77.5209829,12.9918422],[77.5208034,12.9912952],[77.5206709,12.9912683],[77.5207877,12.9912336],[77.5207376,12.9910676],[77.5205893,12.9910095],[77.5205331,12.9908311],[77.5206412,12.9907482],[77.5204899,12.9907061],[77.5206039,12.9906245],[77.5202674,12.9900718],[77.5203876,12.9900376],[77.5197358,12.9884389],[77.5198472,12.9884167],[77.5193133,12.987011],[77.5194208,12.9869844],[77.5192372,12.9867365],[77.5193452,12.9867059],[77.5191788,12.986504],[77.5192912,12.9864814],[77.5192679,12.9863023],[77.5191496,12.9863055],[77.5191743,12.985684],[77.5191456,12.98538],[77.5190337,12.9853648],[77.518982,12.9850448],[77.5190938,12.985015],[77.5190538,12.9847696],[77.5189329,12.9847855],[77.5188128,12.9843342],[77.5189235,12.984291],[77.5187017,12.9840186],[77.5188122,12.9839865],[77.5185948,12.98377],[77.5187104,12.9837385],[77.5184782,12.9835492],[77.5185804,12.9835071],[77.5183176,12.9832946],[77.5184181,12.9832431],[77.5180523,12.9828895],[77.5181512,12.9828342],[77.5178432,12.9824081],[77.5172769,12.9818174],[77.5173935,12.981786],[77.5171892,12.9816941],[77.5172929,12.9816488],[77.5171842,12.9814934],[77.5163767,12.9805586],[77.5164894,12.9804973],[77.5159696,12.9800193],[77.516083,12.9799625],[77.5158608,12.979864],[77.5159626,12.9797996],[77.5155363,12.9794095],[77.5156514,12.9793514],[77.5153397,12.9791095],[77.5152333,12.9789265],[77.5153511,12.9788921],[77.5152126,12.9788913],[77.5152711,12.9787493],[77.5150247,12.9785716],[77.5150109,12.9785459],[77.5151275,12.9784792],[77.5149154,12.9783674],[77.5148033,12.9781429],[77.5149228,12.9780865],[77.5147046,12.9779452],[77.5148267,12.9779008],[77.5146068,12.9777227],[77.5147373,12.9776963],[77.5144271,12.9772762],[77.5145558,12.9772447],[77.514443,12.976937],[77.5142632,12.9768122],[77.5143793,12.9767673],[77.5141776,12.9762425],[77.5137984,12.975596],[77.5134846,12.9747256],[77.5135875,12.9746874],[77.5134229,12.9745454],[77.5135258,12.9745096],[77.5132164,12.9739729],[77.5133355,12.9739477],[77.5130648,12.9734776],[77.5131878,12.9734666],[77.5129562,12.9729999],[77.5130794,12.9729794],[77.5128496,12.972487]]]}}]}